{"type": "FeatureCollection", "features": [ {"type": "Feature", "properties": {"norad_id": 66879, "name": "STARLINK-35749", "group": "last-30-days", "lat": 9.931260525311819, "lon": -171.17142966597498, "alt_km": 369.1513286749614, "timestamp": "2025-12-24T05:51:18.326883+00:00", "meta": {"OBJECT_NAME": "STARLINK-35749", "OBJECT_ID": "2025-283B", "EPOCH": "2025-12-23T22:00:01.999584", "MEAN_MOTION": 15.67565844, "ECCENTRICITY": 0.00013392, "INCLINATION": 53.1588, "RA_OF_ASC_NODE": 17.9789, "ARG_OF_PERICENTER": 81.6555, "MEAN_ANOMALY": 38.6608, "EPHEMERIS_TYPE": 0, "CLASSIFICATION_TYPE": "U", "NORAD_CAT_ID": 66879, "ELEMENT_SET_NO": 999, "REV_AT_EPOCH": 422, "BSTAR": -0.019517144, "MEAN_MOTION_DOT": -0.01918248, "MEAN_MOTION_DDOT": 0}, "tle": {"line1": "1 66879U 25283B   25357.91668981 -.01918248  00000+0 -19517-1 0  9994", "line2": "2 66879  53.1588  17.9789 0001339  81.6555  38.6608 15.67565844  4225"}}, "geometry": {"type": "Point", "coordinates": [-171.17142966597498, 9.931260525311819]}}, {"type": "Feature", "properties": {"norad_id": 66880, "name": "STARLINK-35844", "group": "last-30-days", "lat": 11.450434312533332, "lon": -172.3587405660437, "alt_km": 368.8521671047274, "timestamp": "2025-12-24T05:51:18.326899+00:00", "meta": {"OBJECT_NAME": "STARLINK-35844", "OBJECT_ID": "2025-283C", "EPOCH": "2025-12-23T22:00:01.999584", "MEAN_MOTION": 15.67562614, "ECCENTRICITY": 0.00013598, "INCLINATION": 53.1588, "RA_OF_ASC_NODE": 17.9833, "ARG_OF_PERICENTER": 84.6081, "MEAN_ANOMALY": 33.793, "EPHEMERIS_TYPE": 0, "CLASSIFICATION_TYPE": "U", "NORAD_CAT_ID": 66880, "ELEMENT_SET_NO": 999, "REV_AT_EPOCH": 422, "BSTAR": -0.019473272, "MEAN_MOTION_DOT": -0.0191422, "MEAN_MOTION_DDOT": 0}, "tle": {"line1": "1 66880U 25283C   25357.91668981 -.01914220  00000+0 -19473-1 0  9993", "line2": "2 66880  53.1588  17.9833 0001359  84.6081  33.7930 15.67562614  4222"}}, "geometry": {"type": "Point", "coordinates": [-172.3587405660437, 11.450434312533332]}}, {"type": "Feature", "properties": {"norad_id": 66881, "name": "STARLINK-35860", "group": "last-30-days", "lat": 8.40695645252469, "lon": -169.994500326556, "alt_km": 369.3916077148442, "timestamp": "2025-12-24T05:51:18.326910+00:00", "meta": {"OBJECT_NAME": "STARLINK-35860", "OBJECT_ID": "2025-283D", "EPOCH": "2025-12-23T22:00:01.999584", "MEAN_MOTION": 15.67561751, "ECCENTRICITY": 0.00014292, "INCLINATION": 53.1588, "RA_OF_ASC_NODE": 17.9744, "ARG_OF_PERICENTER": 82.763, "MEAN_ANOMALY": 39.4738, "EPHEMERIS_TYPE": 0, "CLASSIFICATION_TYPE": "U", "NORAD_CAT_ID": 66881, "ELEMENT_SET_NO": 999, "REV_AT_EPOCH": 422, "BSTAR": -0.01948219, "MEAN_MOTION_DOT": -0.01914986, "MEAN_MOTION_DDOT": 0}, "tle": {"line1": "1 66881U 25283D   25357.91668981 -.01914986  00000+0 -19482-1 0  9993", "line2": "2 66881  53.1588  17.9744 0001429  82.7630  39.4738 15.67561751  4221"}}, "geometry": {"type": "Point", "coordinates": [-169.994500326556, 8.40695645252469]}}, {"type": "Feature", "properties": {"norad_id": 66882, "name": "STARLINK-35912", "group": "last-30-days", "lat": 6.882148830380247, "lon": -168.82781036425362, "alt_km": 369.65236273773735, "timestamp": "2025-12-24T05:51:18.326922+00:00", "meta": {"OBJECT_NAME": "STARLINK-35912", "OBJECT_ID": "2025-283E", "EPOCH": "2025-12-23T22:00:01.999584", "MEAN_MOTION": 15.67563918, "ECCENTRICITY": 0.00012342, "INCLINATION": 53.1589, "RA_OF_ASC_NODE": 17.9712, "ARG_OF_PERICENTER": 82.2916, "MEAN_ANOMALY": 41.8601, "EPHEMERIS_TYPE": 0, "CLASSIFICATION_TYPE": "U", "NORAD_CAT_ID": 66882, "ELEMENT_SET_NO": 999, "REV_AT_EPOCH": 422, "BSTAR": -0.019491717, "MEAN_MOTION_DOT": -0.01915825, "MEAN_MOTION_DDOT": 0}, "tle": {"line1": "1 66882U 25283E   25357.91668981 -.01915825  00000+0 -19492-1 0  9998", "line2": "2 66882  53.1589  17.9712 0001234  82.2916  41.8601 15.67563918  4227"}}, "geometry": {"type": "Point", "coordinates": [-168.82781036425362, 6.882148830380247]}}, {"type": "Feature", "properties": {"norad_id": 66883, "name": "STARLINK-35947", "group": "last-30-days", "lat": 5.353034889360613, "lon": -167.66791816224628, "alt_km": 369.8966461345153, "timestamp": "2025-12-24T05:51:18.326934+00:00", "meta": {"OBJECT_NAME": "STARLINK-35947", "OBJECT_ID": "2025-283F", "EPOCH": "2025-12-23T22:00:01.999584", "MEAN_MOTION": 15.67563919, "ECCENTRICITY": 0.00012109, "INCLINATION": 53.1589, "RA_OF_ASC_NODE": 17.9676, "ARG_OF_PERICENTER": 82.4756, "MEAN_ANOMALY": 43.5931, "EPHEMERIS_TYPE": 0, "CLASSIFICATION_TYPE": "U", "NORAD_CAT_ID": 66883, "ELEMENT_SET_NO": 999, "REV_AT_EPOCH": 427, "BSTAR": -0.019494238, "MEAN_MOTION_DOT": -0.01916028, "MEAN_MOTION_DDOT": 0}, "tle": {"line1": "1 66883U 25283F   25357.91668981 -.01916028  00000+0 -19494-1 0  9997", "line2": "2 66883  53.1589  17.9676 0001210  82.4756  43.5931 15.67563919  4276"}}, "geometry": {"type": "Point", "coordinates": [-167.66791816224628, 5.353034889360613]}}, {"type": "Feature", "properties": {"norad_id": 66884, "name": "STARLINK-36057", "group": "last-30-days", "lat": 2.288379782455475, "lon": -165.36489953741855, "alt_km": 370.35246769029527, "timestamp": "2025-12-24T05:51:18.326943+00:00", "meta": {"OBJECT_NAME": "STARLINK-36057", "OBJECT_ID": "2025-283G", "EPOCH": "2025-12-23T22:00:01.999584", "MEAN_MOTION": 15.67563978, "ECCENTRICITY": 0.0001257, "INCLINATION": 53.1589, "RA_OF_ASC_NODE": 17.959, "ARG_OF_PERICENTER": 84.5386, "MEAN_ANOMALY": 45.3637, "EPHEMERIS_TYPE": 0, "CLASSIFICATION_TYPE": "U", "NORAD_CAT_ID": 66884, "ELEMENT_SET_NO": 999, "REV_AT_EPOCH": 422, "BSTAR": -0.019492905, "MEAN_MOTION_DOT": -0.01915949, "MEAN_MOTION_DDOT": 0}, "tle": {"line1": "1 66884U 25283G   25357.91668981 -.01915949  00000+0 -19493-1 0  9998", "line2": "2 66884  53.1589  17.9590 0001257  84.5386  45.3637 15.67563978  4228"}}, "geometry": {"type": "Point", "coordinates": [-165.36489953741855, 2.288379782455475]}}, {"type": "Feature", "properties": {"norad_id": 66885, "name": "STARLINK-35954", "group": "last-30-days", "lat": 3.821046283417486, "lon": -166.51452778180226, "alt_km": 370.1374017856333, "timestamp": "2025-12-24T05:51:18.326953+00:00", "meta": {"OBJECT_NAME": "STARLINK-35954", "OBJECT_ID": "2025-283H", "EPOCH": "2025-12-23T22:00:01.999584", "MEAN_MOTION": 15.67562291, "ECCENTRICITY": 0.00013367, "INCLINATION": 53.1588, "RA_OF_ASC_NODE": 17.9628, "ARG_OF_PERICENTER": 82.6869, "MEAN_ANOMALY": 45.2985, "EPHEMERIS_TYPE": 0, "CLASSIFICATION_TYPE": "U", "NORAD_CAT_ID": 66885, "ELEMENT_SET_NO": 999, "REV_AT_EPOCH": 422, "BSTAR": -0.01946271, "MEAN_MOTION_DOT": -0.01913261, "MEAN_MOTION_DDOT": 0}, "tle": {"line1": "1 66885U 25283H   25357.91668981 -.01913261  00000+0 -19463-1 0  9991", "line2": "2 66885  53.1588  17.9628 0001336  82.6869  45.2985 15.67562291  4225"}}, "geometry": {"type": "Point", "coordinates": [-166.51452778180226, 3.821046283417486]}}, {"type": "Feature", "properties": {"norad_id": 66886, "name": "STARLINK-35900", "group": "last-30-days", "lat": 0.7552613447100059, "lon": -164.2188151256559, "alt_km": 370.46078170247256, "timestamp": "2025-12-24T05:51:18.326963+00:00", "meta": {"OBJECT_NAME": "STARLINK-35900", "OBJECT_ID": "2025-283J", "EPOCH": "2025-12-23T22:00:01.999584", "MEAN_MOTION": 15.67564522, "ECCENTRICITY": 0.00011984, "INCLINATION": 53.1587, "RA_OF_ASC_NODE": 17.9545, "ARG_OF_PERICENTER": 94.9702, "MEAN_ANOMALY": 36.8487, "EPHEMERIS_TYPE": 0, "CLASSIFICATION_TYPE": "U", "NORAD_CAT_ID": 66886, "ELEMENT_SET_NO": 999, "REV_AT_EPOCH": 422, "BSTAR": -0.01950147, "MEAN_MOTION_DOT": -0.01916691, "MEAN_MOTION_DDOT": 0}, "tle": {"line1": "1 66886U 25283J   25357.91668981 -.01916691  00000+0 -19501-1 0  9995", "line2": "2 66886  53.1587  17.9545 0001198  94.9702  36.8487 15.67564522  4223"}}, "geometry": {"type": "Point", "coordinates": [-164.2188151256559, 0.7552613447100059]}}, {"type": "Feature", "properties": {"norad_id": 66887, "name": "STARLINK-35925", "group": "last-30-days", "lat": -0.7793794356627715, "lon": -163.0717989749151, "alt_km": 370.8581480281209, "timestamp": "2025-12-24T05:51:18.326975+00:00", "meta": {"OBJECT_NAME": "STARLINK-35925", "OBJECT_ID": "2025-283K", "EPOCH": "2025-12-23T22:00:01.999584", "MEAN_MOTION": 15.67560278, "ECCENTRICITY": 0.00013849, "INCLINATION": 53.159, "RA_OF_ASC_NODE": 17.9508, "ARG_OF_PERICENTER": 82.2599, "MEAN_ANOMALY": 51.477, "EPHEMERIS_TYPE": 0, "CLASSIFICATION_TYPE": "U", "NORAD_CAT_ID": 66887, "ELEMENT_SET_NO": 999, "REV_AT_EPOCH": 422, "BSTAR": -0.019438762, "MEAN_MOTION_DOT": -0.0191107, "MEAN_MOTION_DDOT": 0}, "tle": {"line1": "1 66887U 25283K   25357.91668981 -.01911070  00000+0 -19439-1 0  9992", "line2": "2 66887  53.1590  17.9508 0001384  82.2599  51.4770 15.67560278  4220"}}, "geometry": {"type": "Point", "coordinates": [-163.0717989749151, -0.7793794356627715]}}, {"type": "Feature", "properties": {"norad_id": 66888, "name": "STARLINK-35919", "group": "last-30-days", "lat": -2.3121967400780115, "lon": -161.9256026254112, "alt_km": 371.0845144449504, "timestamp": "2025-12-24T05:51:18.326985+00:00", "meta": {"OBJECT_NAME": "STARLINK-35919", "OBJECT_ID": "2025-283L", "EPOCH": "2025-12-23T22:00:01.999584", "MEAN_MOTION": 15.67562576, "ECCENTRICITY": 0.0001303, "INCLINATION": 53.159, "RA_OF_ASC_NODE": 17.9466, "ARG_OF_PERICENTER": 81.5638, "MEAN_ANOMALY": 54.0886, "EPHEMERIS_TYPE": 0, "CLASSIFICATION_TYPE": "U", "NORAD_CAT_ID": 66888, "ELEMENT_SET_NO": 999, "REV_AT_EPOCH": 422, "BSTAR": -0.019465062, "MEAN_MOTION_DOT": -0.01913461, "MEAN_MOTION_DDOT": 0}, "tle": {"line1": "1 66888U 25283L   25357.91668981 -.01913461  00000+0 -19465-1 0  9998", "line2": "2 66888  53.1590  17.9466 0001303  81.5638  54.0886 15.67562576  4221"}}, "geometry": {"type": "Point", "coordinates": [-161.9256026254112, -2.3121967400780115]}}]}